{
    "links": {
        "self": "http://www.neowsapp.com/rest/v1/neo/3297386?api_key=iIulBulltgU6a56xZRHN4H3l9WmuAYTsLGpBGhQ2"
    },
    "id": "3297386",
    "neo_reference_id": "3297386",
    "name": "(2005 VF)",
    "designation": "2005 VF",
    "nasa_jpl_url": "http://ssd.jpl.nasa.gov/sbdb.cgi?sstr=3297386",
    "absolute_magnitude_h": 24.7,
    "estimated_diameter": {
        "kilometers": {
            "estimated_diameter_min": 0.0305179233,
            "estimated_diameter_max": 0.0682401509
        },
        "meters": {
            "estimated_diameter_min": 30.5179232594,
            "estimated_diameter_max": 68.2401509401
        },
        "miles": {
            "estimated_diameter_min": 0.0189629525,
            "estimated_diameter_max": 0.0424024508
        },
        "feet": {
            "estimated_diameter_min": 100.1244233463,
            "estimated_diameter_max": 223.8850168104
        }
    },
    "is_potentially_hazardous_asteroid": false,
    "close_approach_data": [
        {
            "close_approach_date": "2005-11-19",
            "close_approach_date_full": "2005-Nov-19 10:00",
            "epoch_date_close_approach": 1132394400000,
            "relative_velocity": {
                "kilometers_per_second": "6.7823408492",
                "kilometers_per_hour": "24416.4270572565",
                "miles_per_hour": "15171.4182456603"
            },
            "miss_distance": {
                "astronomical": "0.0472485051",
                "lunar": "18.3796684839",
                "kilometers": "7068275.723644137",
                "miles": "4392022.8738656106"
            },
            "orbiting_body": "Earth"
        }
    ],
    "orbital_data": {
        "orbit_id": "7",
        "orbit_determination_date": "2017-04-06 09:10:00",
        "first_observation_date": "2005-11-01",
        "last_observation_date": "2005-11-05",
        "data_arc_in_days": 4,
        "observations_used": 23,
        "orbit_uncertainty": "9",
        "minimum_orbit_intersection": ".0467251",
        "jupiter_tisserand_invariant": "3.611",
        "epoch_osculation": "2453677.5",
        "eccentricity": ".5068196465917875",
        "semi_major_axis": "2.055439103907961",
        "inclination": "4.930264805064088",
        "ascending_node_longitude": "213.9271974631582",
        "orbital_period": "1076.354544236314",
        "perihelion_distance": "1.013702183674388",
        "perihelion_argument": "214.8293704753976",
        "aphelion_distance": "3.097176024141534",
        "perihelion_time": "2453703.959532019121",
        "mean_anomaly": "351.1502844690994",
        "mean_motion": ".3344622846883824",
        "equinox": "J2000",
        "orbit_class": {
            "orbit_class_type": "APO",
            "orbit_class_description": "Near-Earth asteroid orbits which cross the Earth’s orbit similar to that of 1862 Apollo",
            "orbit_class_range": "a (semi-major axis) > 1.0 AU; q (perihelion) < 1.017 AU"
        }
    },
    "is_sentry_object": false
}